SAUDISAT 1C (SO-50)     
1 27607U 02058C   23315.91598893  .00001468  00000+0  21862-3 0  9993
2 27607  64.5542 171.8521 0052244 191.8832 168.1043 14.77895222124056
CORIOLIS                
1 27640U 03001A   23315.91467123  .00000240  00000+0  13478-3 0  9991
2 27640  98.7162 321.6437 0015145  65.3519 294.9233 14.19342345 79672
CUTE-1 (CO-55)          
1 27844U 03031E   23315.92290956  .00000538  00000+0  25822-3 0  9995
2 27844  98.6796 321.0470 0010736  61.0630 299.1623 14.22956284 56749
CUBESAT XI-IV (CO-57)   
1 27848U 03031J   23315.56389778  .00000556  00000+0  26874-3 0  9998
2 27848  98.6832 321.0486 0010752  75.8992 284.3380 14.22442747 56507
MOZHAYETS 4 (RS-22)     
1 27939U 03042A   23315.91972038  .00001821  00000+0  31919-3 0  9999
2 27939  98.2635 104.2302 0012929  34.5032 117.0237 14.68960122 76099
IRS-P6 (RESOURCESAT-1)  
1 28051U 03046A   23315.93955069  .00000385  00000+0  14891-3 0  9990
2 28051  98.3423  16.0626 0057432 292.1382 185.8539 14.34483740 44450
SAUDISAT 2              
1 28371U 04025F   23315.89211768  .00000701  00000+0  17274-3 0  9999
2 28371  98.4538 281.0120 0024752 332.4522  27.5362 14.55140476 27758
COSMOS 2407             
1 28380U 04028A   23315.83127413  .00000090  00000+0  76155-4 0  9994
2 28380  82.9628  57.0847 0039722  26.5856  89.6627 13.76177399969425
COSMOS 2414             
1 28521U 05002A   23315.76004504  .00000119  00000+0  86462-4 0  9995
2 28521  82.9530  40.8968 0040985 152.0135 208.3244 13.87733391952290
INMARSAT 4-F1           
1 28628U 05009A   23315.93894175 -.00000237  00000+0  00000+0 0  9991
2 28628   4.0384  39.5557 0003231 203.0359 289.8612  1.00274074 68164
HAMSAT (VO-52)          
1 28650U 05017B   23315.89844402  .00005970  00000+0  55068-3 0  9994
2 28650  97.9664 293.1889 0019843 329.8957  30.1121 14.94900609  4354
NOAA 18                 
1 28654U 05018A   23315.84857051  .00000313  00000+0  19123-3 0  9996
2 28654  98.8978  29.4393 0013553 325.0353  34.9928 14.13052853952333
SJ-7                    
1 28737U 05024A   23315.91457888  .00004812  00000+0  36673-3 0  9994
2 28737  97.7673 315.4500 0025034  40.8681 319.4414 15.02281316  4769
CUBESAT XI-V            
1 28895U 05043F   23315.91138426  .00002155  00000+0  39820-3 0  9999
2 28895  98.1739  87.0828 0015493 329.9068  30.1244 14.66380998962457
CLOUDSAT                
1 29107U 06016A   23315.91269333  .00000694  00000+0  14060-3 0  9994
2 29107  98.3938 288.3568 0003812 124.1750 235.9813 14.64471291933998
CALIPSO                 
1 29108U 06016B   23315.90344162  .00001979  00000+0  38101-3 0  9997
2 29108  98.3943 287.8683 0001372  83.0274 277.1084 14.64722747933982
HINODE (SOLAR-B)        
1 29479U 06041A   23315.94989207  .00001077  00000+0  20561-3 0  9995
2 29479  98.1013 329.3226 0019195  53.0025 307.2932 14.65821065915809
METOP-A                 
1 29499U 06044A   23315.94758102  .00003046  00000+0  39737-3 0  9991
2 29499  98.3840  20.4437 0191799 197.3368 164.6271 14.69299536885877
SHIJIAN-6 02B (SJ-6 02B)
1 29506U 06046B   23315.89689979  .00002482  00000+0  22598-3 0  9991
2 29506  97.7609 337.8332 0001379  12.6042 347.5213 14.96076851928670
DMSP 5D-3 F17 (USA 191) 
1 29522U 06050A   23315.95177342  .00000266  00000+0  16158-3 0  9990
2 29522  98.7514 326.0012 0009066 238.9130 121.1154 14.14332739878349
LAPAN-TUBSAT            
1 29709U 07001A   23315.90935026  .00001145  00000+0  14592-3 0  9997
2 29709  98.0405 284.1666 0013481  35.9604 324.2514 14.83436819910437
CARTOSAT-2 (IRS-P7)     
1 29710U 07001B   23315.93902531  .00087693  00000+0  59371-3 0  9993
2 29710  97.8995 109.8220 0063907  17.8712 342.4776 15.71879177915349
HAIYANG-1B              
1 31113U 07010A   23315.94302683  .00000175  00000+0  82954-4 0  9990
2 31113  98.2961 322.9893 0014612 130.4408 229.8052 14.30497203865039
BEIDOU-2 M1             
1 31115U 07011A   23315.44438700 -.00000018  00000+0  00000+0 0  9992
2 31115  51.3780 250.8098 0002950 339.5469  20.4349  1.77349207 59325
CAPE-1                  
1 31130U 07012P   23315.78018111  .00001943  00000+0  39969-3 0  9994
2 31130  98.3238 259.9709 0092827 144.1006 216.6479 14.59033989879749
AGILE                   
1 31135U 07013A   23315.81855500  .00100571  00000+0  75100-3 0  9999
2 31135   2.4670  86.7943 0004878  27.6053 332.4261 15.70639433556515
AIM                     
1 31304U 07015A   23315.86403922  .00033408  00000+0  87947-3 0  9997
2 31304  97.8830 266.2398 0005483  60.6861 299.4930 15.38466761909316
CBERS 2B                
1 32062U 07042A   23315.85227698  .00000575  00000+0  19365-3 0  9990
2 32062  98.2719 268.3278 0030664 313.8852  99.9064 14.40306055848113
COSMO-SKYMED 2          
1 32376U 07059A   23315.90824942  .00000877  00000+0  11672-3 0  9995
2 32376  97.8865 137.2585 0001453  84.5969 275.5410 14.82157802861536
CARTOSAT-2A             
1 32783U 08021A   23315.81032241  .00001570  00000+0  22063-3 0  9997
2 32783  97.8986  13.7388 0011466 311.5267  48.4960 14.78731571838649
CUTE-1.7+APD II (CO-65) 
1 32785U 08021C   23315.84907104  .00006666  00000+0  63238-3 0  9991
2 32785  97.7260 278.9298 0011001 343.1849  16.9004 14.93827667842858
COMPASS-1               
1 32787U 08021E   23315.87538344  .00011774  00000+0  83853-3 0  9993
2 32787  97.6008 289.3557 0010016 221.0963 138.9510 15.04721709844839
AAUSAT-II               
1 32788U 08021F   23315.48910634  .00016662  00000+0  10838-2 0  9990
2 32788  97.5765 292.1244 0005863 190.6004 169.5102 15.08040797845276
DELFI-C3 (DO-64)        
1 32789U 08021G   23315.79995400  .02601764  86756-2  34020-2 0  9998
2 32789  97.2662 339.6922 0003829 208.7224 151.3849 16.09185921850291
SEEDS II (CO-66)        
1 32791U 08021J   23315.85351633  .00009338  00000+0  77201-3 0  9993
2 32791  97.6729 284.3492 0008984 274.8148  85.2049 14.99114545843847
YUBILEINY (RS-30)       
1 32953U 08025A   23315.88791184  .00000017  00000+0  50244-4 0  9993
2 32953  82.5054 225.2218 0018368 221.3111 138.6580 12.43131833701869
FENGYUN 3A              
1 32958U 08026A   23315.87284681  .00000245  00000+0  13775-3 0  9997
2 32958  98.5752 264.6691 0008553 350.6215   9.4800 14.18957693800880
HUANJING 1A (HJ-1A)     
1 33320U 08041A   23315.89659647  .00001903  00000+0  26398-3 0  9995
2 33320  97.6387 328.8273 0020814   7.9568 352.1970 14.78888961817986
HUANJING 1B (HJ-1B)     
1 33321U 08041B   23315.90006359  .00001473  00000+0  20127-3 0  9990
2 33321  97.6381 333.2920 0040052  50.5279 309.9465 14.79449602818008
SHIJIAN-6 03A (SJ-6 03A)
1 33408U 08053A   23315.95724248  .00004906  00000+0  39407-3 0  9993
2 33408  97.8942 308.7359 0016573 355.3502   4.7564 15.00415108819952
SHIJIAN-6 03B (SJ-6 03B)
1 33409U 08053B   23315.93598788  .00002891  00000+0  25328-3 0  9998
2 33409  97.8748 306.7253 0014485 334.4171  25.6332 14.97418089820489
CHUANGXIN 1-02 (CX-1-02)
1 33434U 08056B   23315.89842318  .00000159  00000+0  79178-4 0  9993
2 33434  98.6891 331.6459 0015092  45.4366 314.8045 14.29705259783092
PRISM (HITOMI)          
1 33493U 09002B   23315.80232532  .00013801  00000+0  84105-3 0  9995
2 33493  98.2363 341.0210 0012958 270.8170  89.1573 15.10438805805995
STARS (KUKAI)           
1 33498U 09002G   23315.75127827  .00005035  00000+0  62245-3 0  9995
2 33498  98.1245 220.9904 0011404  42.6991 317.5106 14.83207717797270
KKS-1 (KISEKI)          
1 33499U 09002H   23315.84540628  .00001904  00000+0  27328-3 0  9998
2 33499  98.1545 209.9442 0010013 109.4344 250.7949 14.77658456795866
NOAA 19                 
1 33591U 09005A   23315.91190637  .00000278  00000+0  17415-3 0  9992
2 33591  99.0814   4.0740 0013857 183.5723 176.5352 14.12863308760549
YAOGAN 6                
1 34839U 09021A   23315.88693901  .00013117  00000+0  33279-3 0  9996
2 34839  97.1450 281.9579 0018591 253.1788 106.7419 15.39622387809768
UK-DMC 2                
1 35683U 09041C   23315.93312263  .00001415  00000+0  22995-3 0  9992
2 35683  97.7520 108.1156 0001605  84.9509 275.1882 14.72567005766836
METEOR-M 1              
1 35865U 09049A   23315.90399650  .00000223  00000+0  11888-3 0  9999
2 35865  98.6022 276.9619 0002524 151.0884 209.0435 14.22582598734391
OCEANSAT-2              
1 35931U 09051A   23315.93420216 -.00000107  00000+0 -47492-4 0  9996
2 35931  98.2985  20.4783 0016395  34.0332 326.1882 13.99407160746699
SWISSCUBE               
1 35932U 09051B   23315.60916708  .00001907  00000+0  42368-3 0  9990
2 35932  98.4967 189.3234 0006209 275.5788  84.4702 14.58197920750694
BEESAT-1                
1 35933U 09051C   23315.92607499  .00001310  00000+0  29542-3 0  9997
2 35933  98.4895 190.8188 0004571 290.9094  69.1614 14.58046159750814
ITUPSAT1                
1 35935U 09051E   23315.65197241  .00001523  00000+0  34900-3 0  9998
2 35935  98.4996 190.4269 0006919 296.0023  64.0461 14.57062859750437
DMSP 5D-3 F18 (USA 210) 
1 35951U 09057A   23315.89830943  .00000356  00000+0  21039-3 0  9993
2 35951  98.7873 289.5527 0012235  69.3338 290.9146 14.13906003725530
PROBA-2                 
1 36037U 09059B   23315.75881932  .00000575  00000+0  14787-3 0  9995
2 36037  98.2259 137.9701 0012843 333.6568  26.3974 14.53677083743678
YAOGAN 7                
1 36110U 09069A   23315.92251708  .00000857  00000+0  13227-3 0  9990
2 36110  98.1328 185.7121 0024998 205.4954 154.5023 14.75782530749653
XIWANG-1 (HOPE-1)       
1 36122U 09072B   23315.60619317 -.00000008  00000+0  92471-4 0  9994
2 36122 100.2612 274.9547 0006900 243.3007 116.7401 13.16390502668190
RADUGA-1M 2             
1 36358U 10002A   23315.92754177 -.00000160  00000+0  00000+0 0  9990
2 36358   1.1512  91.3578 0003668 121.9750 256.4220  1.00270400 40580
COSMOS 2463             
1 36519U 10017A   23315.86389134  .00000077  00000+0  68555-4 0  9995
2 36519  82.9627 226.4101 0034881 240.6101 185.6108 13.71528967677934
